CCSDS_OMM_VERS = 2.0
CREATION_DATE  = 
ORIGINATOR     = 

OBJECT_NAME    = ISS (ZARYA)
OBJECT_ID      = 1998-067A
CENTER_NAME    = EARTH
REF_FRAME      = TEME
TIME_SYSTEM    = UTC
MEAN_ELEMENT_THEORY = SGP/SGP4

EPOCH          = 2026-01-29T03:27:42.245280
MEAN_MOTION    = 15.48261724
ECCENTRICITY   = .0011079
INCLINATION    = 51.6318
RA_OF_ASC_NODE = 267.8418
ARG_OF_PERICENTER = 40.9721
MEAN_ANOMALY   = 319.2097

EPHEMERIS_TYPE = 0
CLASSIFICATION_TYPE = U
NORAD_CAT_ID   = 25544
ELEMENT_SET_NO = 999
REV_AT_EPOCH   = 55020
BSTAR          = .2333E-3
MEAN_MOTION_DOT = .12119E-3
MEAN_MOTION_DDOT = 0

CCSDS_OMM_VERS = 2.0
CREATION_DATE  = 
ORIGINATOR     = 

OBJECT_NAME    = CSS (TIANHE)
OBJECT_ID      = 2021-035A
CENTER_NAME    = EARTH
REF_FRAME      = TEME
TIME_SYSTEM    = UTC
MEAN_ELEMENT_THEORY = SGP/SGP4

EPOCH          = 2026-01-29T11:13:14.858976
MEAN_MOTION    = 15.61300658
ECCENTRICITY   = .0009214
INCLINATION    = 41.4674
RA_OF_ASC_NODE = 86.5141
ARG_OF_PERICENTER = 30.7035
MEAN_ANOMALY   = 329.4341

EPHEMERIS_TYPE = 0
CLASSIFICATION_TYPE = U
NORAD_CAT_ID   = 48274
ELEMENT_SET_NO = 999
REV_AT_EPOCH   = 27148
BSTAR          = .4075E-3
MEAN_MOTION_DOT = .35517E-3
MEAN_MOTION_DDOT = 0

CCSDS_OMM_VERS = 2.0
CREATION_DATE  = 
ORIGINATOR     = 

OBJECT_NAME    = ISS (NAUKA)
OBJECT_ID      = 2021-066A
CENTER_NAME    = EARTH
REF_FRAME      = TEME
TIME_SYSTEM    = UTC
MEAN_ELEMENT_THEORY = SGP/SGP4

EPOCH          = 2026-01-28T21:15:55.109664
MEAN_MOTION    = 15.48254051
ECCENTRICITY   = .0011179
INCLINATION    = 51.6319
RA_OF_ASC_NODE = 269.1180
ARG_OF_PERICENTER = 40.2849
MEAN_ANOMALY   = 319.8966

EPHEMERIS_TYPE = 0
CLASSIFICATION_TYPE = U
NORAD_CAT_ID   = 49044
ELEMENT_SET_NO = 999
REV_AT_EPOCH   = 23044
BSTAR          = .21299538E-3
MEAN_MOTION_DOT = .11021E-3
MEAN_MOTION_DDOT = 0

CCSDS_OMM_VERS = 2.0
CREATION_DATE  = 
ORIGINATOR     = 

OBJECT_NAME    = FREGAT DEB
OBJECT_ID      = 2011-037PF
CENTER_NAME    = EARTH
REF_FRAME      = TEME
TIME_SYSTEM    = UTC
MEAN_ELEMENT_THEORY = SGP/SGP4

EPOCH          = 2026-01-29T07:23:18.896640
MEAN_MOTION    = 12.37217813
ECCENTRICITY   = .0914903
INCLINATION    = 51.6493
RA_OF_ASC_NODE = 58.4836
ARG_OF_PERICENTER = 329.2306
MEAN_ANOMALY   = 25.7830

EPHEMERIS_TYPE = 0
CLASSIFICATION_TYPE = U
NORAD_CAT_ID   = 49271
ELEMENT_SET_NO = 999
REV_AT_EPOCH   = 20781
BSTAR          = .99991E-1
MEAN_MOTION_DOT = .56122E-3
MEAN_MOTION_DDOT = 0

CCSDS_OMM_VERS = 2.0
CREATION_DATE  = 
ORIGINATOR     = 

OBJECT_NAME    = CSS (WENTIAN)
OBJECT_ID      = 2022-085A
CENTER_NAME    = EARTH
REF_FRAME      = TEME
TIME_SYSTEM    = UTC
MEAN_ELEMENT_THEORY = SGP/SGP4

EPOCH          = 2026-01-28T13:43:40.256544
MEAN_MOTION    = 15.61237451
ECCENTRICITY   = .0009404
INCLINATION    = 41.4673
RA_OF_ASC_NODE = 91.9689
ARG_OF_PERICENTER = 23.4558
MEAN_ANOMALY   = 336.6709

EPHEMERIS_TYPE = 0
CLASSIFICATION_TYPE = U
NORAD_CAT_ID   = 53239
ELEMENT_SET_NO = 999
REV_AT_EPOCH   = 17384
BSTAR          = .32261599E-3
MEAN_MOTION_DOT = .27953E-3
MEAN_MOTION_DDOT = 0

CCSDS_OMM_VERS = 2.0
CREATION_DATE  = 
ORIGINATOR     = 

OBJECT_NAME    = CSS (MENGTIAN)
OBJECT_ID      = 2022-143A
CENTER_NAME    = EARTH
REF_FRAME      = TEME
TIME_SYSTEM    = UTC
MEAN_ELEMENT_THEORY = SGP/SGP4

EPOCH          = 2026-01-28T13:43:40.256544
MEAN_MOTION    = 15.61237451
ECCENTRICITY   = .0009404
INCLINATION    = 41.4673
RA_OF_ASC_NODE = 91.9689
ARG_OF_PERICENTER = 23.4558
MEAN_ANOMALY   = 336.6709

EPHEMERIS_TYPE = 0
CLASSIFICATION_TYPE = U
NORAD_CAT_ID   = 54216
ELEMENT_SET_NO = 999
REV_AT_EPOCH   = 15864
BSTAR          = .32261599E-3
MEAN_MOTION_DOT = .27953E-3
MEAN_MOTION_DDOT = 0

CCSDS_OMM_VERS = 2.0
CREATION_DATE  = 
ORIGINATOR     = 

OBJECT_NAME    = PROGRESS-MS 31
OBJECT_ID      = 2025-146A
CENTER_NAME    = EARTH
REF_FRAME      = TEME
TIME_SYSTEM    = UTC
MEAN_ELEMENT_THEORY = SGP/SGP4

EPOCH          = 2026-01-28T21:15:55.109664
MEAN_MOTION    = 15.48254051
ECCENTRICITY   = .0011179
INCLINATION    = 51.6319
RA_OF_ASC_NODE = 269.1180
ARG_OF_PERICENTER = 40.2849
MEAN_ANOMALY   = 319.8966

EPHEMERIS_TYPE = 0
CLASSIFICATION_TYPE = U
NORAD_CAT_ID   = 64751
ELEMENT_SET_NO = 999
REV_AT_EPOCH   = 675
BSTAR          = .21299538E-3
MEAN_MOTION_DOT = .11021E-3
MEAN_MOTION_DDOT = 0

CCSDS_OMM_VERS = 2.0
CREATION_DATE  = 
ORIGINATOR     = 

OBJECT_NAME    = TIANZHOU-9
OBJECT_ID      = 2025-149A
CENTER_NAME    = EARTH
REF_FRAME      = TEME
TIME_SYSTEM    = UTC
MEAN_ELEMENT_THEORY = SGP/SGP4

EPOCH          = 2026-01-28T13:43:40.256544
MEAN_MOTION    = 15.61237451
ECCENTRICITY   = .0009404
INCLINATION    = 41.4673
RA_OF_ASC_NODE = 91.9689
ARG_OF_PERICENTER = 23.4558
MEAN_ANOMALY   = 336.6709

EPHEMERIS_TYPE = 0
CLASSIFICATION_TYPE = U
NORAD_CAT_ID   = 64786
ELEMENT_SET_NO = 999
REV_AT_EPOCH   = 25530
BSTAR          = .32261599E-3
MEAN_MOTION_DOT = .27953E-3
MEAN_MOTION_DDOT = 0

CCSDS_OMM_VERS = 2.0
CREATION_DATE  = 
ORIGINATOR     = 

OBJECT_NAME    = DRAGON CRS-33
OBJECT_ID      = 2025-186A
CENTER_NAME    = EARTH
REF_FRAME      = TEME
TIME_SYSTEM    = UTC
MEAN_ELEMENT_THEORY = SGP/SGP4

EPOCH          = 2026-01-28T21:15:55.109664
MEAN_MOTION    = 15.48254051
ECCENTRICITY   = .0011179
INCLINATION    = 51.6319
RA_OF_ASC_NODE = 269.1180
ARG_OF_PERICENTER = 40.2849
MEAN_ANOMALY   = 319.8966

EPHEMERIS_TYPE = 0
CLASSIFICATION_TYPE = U
NORAD_CAT_ID   = 65304
ELEMENT_SET_NO = 999
REV_AT_EPOCH   = 11
BSTAR          = .21299538E-3
MEAN_MOTION_DOT = .11021E-3
MEAN_MOTION_DDOT = 0

CCSDS_OMM_VERS = 2.0
CREATION_DATE  = 
ORIGINATOR     = 

OBJECT_NAME    = PROGRESS-MS 32
OBJECT_ID      = 2025-204A
CENTER_NAME    = EARTH
REF_FRAME      = TEME
TIME_SYSTEM    = UTC
MEAN_ELEMENT_THEORY = SGP/SGP4

EPOCH          = 2026-01-28T21:15:55.109664
MEAN_MOTION    = 15.48254051
ECCENTRICITY   = .0011179
INCLINATION    = 51.6319
RA_OF_ASC_NODE = 269.1180
ARG_OF_PERICENTER = 40.2849
MEAN_ANOMALY   = 319.8966

EPHEMERIS_TYPE = 0
CLASSIFICATION_TYPE = U
NORAD_CAT_ID   = 65586
ELEMENT_SET_NO = 999
REV_AT_EPOCH   = 27
BSTAR          = .21299538E-3
MEAN_MOTION_DOT = .11021E-3
MEAN_MOTION_DDOT = 0

CCSDS_OMM_VERS = 2.0
CREATION_DATE  = 
ORIGINATOR     = 

OBJECT_NAME    = CYGNUS NG-23
OBJECT_ID      = 2025-208A
CENTER_NAME    = EARTH
REF_FRAME      = TEME
TIME_SYSTEM    = UTC
MEAN_ELEMENT_THEORY = SGP/SGP4

EPOCH          = 2026-01-28T21:15:55.109664
MEAN_MOTION    = 15.48254051
ECCENTRICITY   = .0011179
INCLINATION    = 51.6319
RA_OF_ASC_NODE = 269.1180
ARG_OF_PERICENTER = 40.2849
MEAN_ANOMALY   = 319.8966

EPHEMERIS_TYPE = 0
CLASSIFICATION_TYPE = U
NORAD_CAT_ID   = 65616
ELEMENT_SET_NO = 999
REV_AT_EPOCH   = 22
BSTAR          = .21299538E-3
MEAN_MOTION_DOT = .11021E-3
MEAN_MOTION_DDOT = 0

CCSDS_OMM_VERS = 2.0
CREATION_DATE  = 
ORIGINATOR     = 

OBJECT_NAME    = DRAGONFLY
OBJECT_ID      = 1998-067XH
CENTER_NAME    = EARTH
REF_FRAME      = TEME
TIME_SYSTEM    = UTC
MEAN_ELEMENT_THEORY = SGP/SGP4

EPOCH          = 2026-01-28T20:02:50.600832
MEAN_MOTION    = 16.14710791
ECCENTRICITY   = .00075382
INCLINATION    = 51.6063
RA_OF_ASC_NODE = 249.8464
ARG_OF_PERICENTER = 230.2713
MEAN_ANOMALY   = 129.7639

EPHEMERIS_TYPE = 0
CLASSIFICATION_TYPE = U
NORAD_CAT_ID   = 65729
ELEMENT_SET_NO = 999
REV_AT_EPOCH   = 2063
BSTAR          = .17458997E-2
MEAN_MOTION_DOT = .215085E-1
MEAN_MOTION_DDOT = .51119263E-2

